{
  "links" : {
    "next" : "https://api.nasa.gov/neo/rest/v1/feed?start_date=2006-03-16&end_date=2006-03-16&detailed=true&api_key=t0TVs3DtDT2H8Oy2Zy8m2eVrNsAVKAexjcZXUckd",
    "prev" : "https://api.nasa.gov/neo/rest/v1/feed?start_date=2006-03-14&end_date=2006-03-14&detailed=true&api_key=t0TVs3DtDT2H8Oy2Zy8m2eVrNsAVKAexjcZXUckd",
    "self" : "https://api.nasa.gov/neo/rest/v1/feed?start_date=2006-03-15&end_date=2006-03-15&detailed=true&api_key=t0TVs3DtDT2H8Oy2Zy8m2eVrNsAVKAexjcZXUckd"
  },
  "element_count" : 8,
  "near_earth_objects" : {
    "2006-03-15" : [ {
      "links" : {
        "self" : "https://api.nasa.gov/neo/rest/v1/neo/3174187?api_key=t0TVs3DtDT2H8Oy2Zy8m2eVrNsAVKAexjcZXUckd"
      },
      "neo_reference_id" : "3174187",
      "name" : "(2004 BT58)",
      "nasa_jpl_url" : "http://ssd.jpl.nasa.gov/sbdb.cgi?sstr=3174187",
      "absolute_magnitude_h" : 22.1,
      "estimated_diameter" : {
        "kilometers" : {
          "estimated_diameter_min" : 0.1010543415,
          "estimated_diameter_max" : 0.2259643771
        },
        "meters" : {
          "estimated_diameter_min" : 101.054341542,
          "estimated_diameter_max" : 225.9643771094
        },
        "miles" : {
          "estimated_diameter_min" : 0.0627922373,
          "estimated_diameter_max" : 0.140407711
        },
        "feet" : {
          "estimated_diameter_min" : 331.5431259047,
          "estimated_diameter_max" : 741.3529669956
        }
      },
      "is_potentially_hazardous_asteroid" : false,
      "close_approach_data" : [ {
        "close_approach_date" : "2006-03-15",
        "epoch_date_close_approach" : 1142409600000,
        "relative_velocity" : {
          "kilometers_per_second" : "10.8712594496",
          "kilometers_per_hour" : "39136.5340186939",
          "miles_per_hour" : "24317.9202628935"
        },
        "miss_distance" : {
          "astronomical" : "0.4342407436",
          "lunar" : "168.9196624756",
          "kilometers" : "64961492",
          "miles" : "40365200"
        },
        "orbiting_body" : "Earth"
      } ],
      "orbital_data" : {
        "orbit_id" : "12",
        "orbit_determination_date" : "2017-04-06 09:13:14",
        "orbit_uncertainty" : "3",
        "minimum_orbit_intersection" : ".0792105",
        "jupiter_tisserand_invariant" : "6.170",
        "epoch_osculation" : "2458000.5",
        "eccentricity" : ".3850040848296821",
        "semi_major_axis" : ".9610039811358483",
        "inclination" : "17.66640725638918",
        "ascending_node_longitude" : "300.8517556903868",
        "orbital_period" : "344.1012157963448",
        "perihelion_distance" : ".59101352286096",
        "perihelion_argument" : "45.83685111438521",
        "aphelion_distance" : "1.330994439410737",
        "perihelion_time" : "2458092.305089597770",
        "mean_anomaly" : "263.9531662836156",
        "mean_motion" : "1.046203801305558",
        "equinox" : "J2000"
      }
    }, {
      "links" : {
        "self" : "https://api.nasa.gov/neo/rest/v1/neo/3405618?api_key=t0TVs3DtDT2H8Oy2Zy8m2eVrNsAVKAexjcZXUckd"
      },
      "neo_reference_id" : "3405618",
      "name" : "(2008 EY68)",
      "nasa_jpl_url" : "http://ssd.jpl.nasa.gov/sbdb.cgi?sstr=3405618",
      "absolute_magnitude_h" : 22.0,
      "estimated_diameter" : {
        "kilometers" : {
          "estimated_diameter_min" : 0.1058168859,
          "estimated_diameter_max" : 0.2366137501
        },
        "meters" : {
          "estimated_diameter_min" : 105.8168859331,
          "estimated_diameter_max" : 236.6137501138
        },
        "miles" : {
          "estimated_diameter_min" : 0.0657515442,
          "estimated_diameter_max" : 0.1470249225
        },
        "feet" : {
          "estimated_diameter_min" : 347.1682720448,
          "estimated_diameter_max" : 776.2918559233
        }
      },
      "is_potentially_hazardous_asteroid" : false,
      "close_approach_data" : [ {
        "close_approach_date" : "2006-03-15",
        "epoch_date_close_approach" : 1142409600000,
        "relative_velocity" : {
          "kilometers_per_second" : "28.8372955646",
          "kilometers_per_hour" : "103814.2640326946",
          "miles_per_hour" : "64506.1464485374"
        },
        "miss_distance" : {
          "astronomical" : "0.1981836294",
          "lunar" : "77.0934295654",
          "kilometers" : "29647848",
          "miles" : "18422320"
        },
        "orbiting_body" : "Earth"
      } ],
      "orbital_data" : {
        "orbit_id" : "19",
        "orbit_determination_date" : "2017-04-06 09:04:02",
        "orbit_uncertainty" : "1",
        "minimum_orbit_intersection" : ".039743",
        "jupiter_tisserand_invariant" : "7.447",
        "epoch_osculation" : "2458000.5",
        "eccentricity" : ".7600292565035359",
        "semi_major_axis" : ".7450658229095554",
        "inclination" : "19.79561687660994",
        "ascending_node_longitude" : "175.4939819041255",
        "orbital_period" : "234.9039881579889",
        "perihelion_distance" : ".1787939994774108",
        "perihelion_argument" : "198.9806589630388",
        "aphelion_distance" : "1.3113376463417",
        "perihelion_time" : "2457995.838097780856",
        "mean_anomaly" : "7.144556429425553",
        "mean_motion" : "1.532541030158566",
        "equinox" : "J2000"
      }
    }, {
      "links" : {
        "self" : "https://api.nasa.gov/neo/rest/v1/neo/3624746?api_key=t0TVs3DtDT2H8Oy2Zy8m2eVrNsAVKAexjcZXUckd"
      },
      "neo_reference_id" : "3624746",
      "name" : "(2013 BH18)",
      "nasa_jpl_url" : "http://ssd.jpl.nasa.gov/sbdb.cgi?sstr=3624746",
      "absolute_magnitude_h" : 20.7,
      "estimated_diameter" : {
        "kilometers" : {
          "estimated_diameter_min" : 0.1925550782,
          "estimated_diameter_max" : 0.4305662442
        },
        "meters" : {
          "estimated_diameter_min" : 192.5550781879,
          "estimated_diameter_max" : 430.566244241
        },
        "miles" : {
          "estimated_diameter_min" : 0.1196481415,
          "estimated_diameter_max" : 0.2675413778
        },
        "feet" : {
          "estimated_diameter_min" : 631.7424027221,
          "estimated_diameter_max" : 1412.6189567557
        }
      },
      "is_potentially_hazardous_asteroid" : false,
      "close_approach_data" : [ {
        "close_approach_date" : "2006-03-15",
        "epoch_date_close_approach" : 1142409600000,
        "relative_velocity" : {
          "kilometers_per_second" : "2.4281858812",
          "kilometers_per_hour" : "8741.4691722184",
          "miles_per_hour" : "5431.6089975932"
        },
        "miss_distance" : {
          "astronomical" : "0.3663366384",
          "lunar" : "142.5049591064",
          "kilometers" : "54803184",
          "miles" : "34053120"
        },
        "orbiting_body" : "Earth"
      } ],
      "orbital_data" : {
        "orbit_id" : "12",
        "orbit_determination_date" : "2017-04-06 08:47:06",
        "orbit_uncertainty" : "1",
        "minimum_orbit_intersection" : ".298716",
        "jupiter_tisserand_invariant" : "4.053",
        "epoch_osculation" : "2458000.5",
        "eccentricity" : ".2767652569308086",
        "semi_major_axis" : "1.77173139921653",
        "inclination" : "5.483496060802219",
        "ascending_node_longitude" : "309.0222392621082",
        "orbital_period" : "861.3809241587833",
        "perihelion_distance" : "1.281377703299986",
        "perihelion_argument" : "253.4792261247844",
        "aphelion_distance" : "2.262085095133073",
        "perihelion_time" : "2458162.719700825568",
        "mean_anomaly" : "292.2029422067402",
        "mean_motion" : ".417933564469834",
        "equinox" : "J2000"
      }
    } ]
  }
}